$$SOE
2461302.500000000, A.D. 2026-Sep-19 00:00:00.0000, -1.713195364747300E+07, 2.960399860624217E+08, -2.560652213882923E+06,
2461309.500000000, A.D. 2026-Sep-26 00:00:00.0000, -3.016737468277156E+07, 2.988772947948073E+08, -1.232097231148168E+06,
2461316.500000000, A.D. 2026-Oct-03 00:00:00.0000, -4.314900641643618E+07, 3.011794202298527E+08, 9.868194595420361E+04,
2461323.500000000, A.D. 2026-Oct-10 00:00:00.0000, -5.605649834371961E+07, 3.029624775092366E+08, 1.429307882977992E+06,
2461330.500000000, A.D. 2026-Oct-17 00:00:00.0000, -6.887117919458611E+07, 3.042427325159450E+08, 2.757577445020214E+06,
2461337.500000000, A.D. 2026-Oct-24 00:00:00.0000, -8.157595015725189E+07, 3.050364924477528E+08, 4.081452174368307E+06,
2461344.500000000, A.D. 2026-Oct-31 00:00:00.0000, -9.415517931774306E+07, 3.053600137774065E+08, 5.399048525020719E+06,
2461351.500000000, A.D. 2026-Nov-07 00:00:00.0000, -1.065945983421810E+08, 3.052294256725296E+08, 6.708628102270082E+06,
2461358.500000000, A.D. 2026-Nov-14 00:00:00.0000, -1.188812022039795E+08, 3.046606678829265E+08, 8.008588094588369E+06,
2461365.500000000, A.D. 2026-Nov-21 00:00:00.0000, -1.310031544714119E+08, 3.036694420448161E+08, 9.297452218973368E+06,
2461372.500000000, A.D. 2026-Nov-28 00:00:00.0000, -1.429496996064004E+08, 3.022711718108706E+08, 1.057386209701787E+07,
2461379.500000000, A.D. 2026-Dec-05 00:00:00.0000, -1.547110789171696E+08, 3.004809697088168E+08, 1.183656872605112E+07,
2461386.500000000, A.D. 2026-Dec-12 00:00:00.0000, -1.662784501204136E+08, 2.983136125647240E+08, 1.308442431568819E+07,
2461393.500000000, A.D. 2026-Dec-19 00:00:00.0000, -1.776438123921862E+08, 2.957835243717122E+08, 1.431637467940007E+07,
2461400.500000000, A.D. 2026-Dec-26 00:00:00.0000, -1.887999369502522E+08, 2.929047647309501E+08, 1.553145212834989E+07,
2461407.500000000, A.D. 2027-Jan-02 00:00:00.0000, -1.997403027366656E+08, 2.896910217896190E+08, 1.672876882335342E+07,
2461414.500000000, A.D. 2027-Jan-09 00:00:00.0000, -2.104590368911194E+08, 2.861556089310600E+08, 1.790751056646210E+07,
2461421.500000000, A.D. 2027-Jan-16 00:00:00.0000, -2.209508597588843E+08, 2.823114645719621E+08, 1.906693101573503E+07,
2461428.500000000, A.D. 2027-Jan-23 00:00:00.0000, -2.312110341431345E+08, 2.781711544681662E+08, 2.020634629834020E+07,
2461435.500000000, A.D. 2027-Jan-30 00:00:00.0000, -2.412353183543439E+08, 2.737468759996752E+08, 2.132512998073418E+07,
2461442.500000000, A.D. 2027-Feb-06 00:00:00.0000, -2.510199223683282E+08, 2.690504643574772E+08, 2.242270836283019E+07,
2461449.500000000, A.D. 2027-Feb-13 00:00:00.0000, -2.605614672960874E+08, 2.640934014926125E+08, 2.349855621542625E+07,
2461456.500000000, A.D. 2027-Feb-20 00:00:00.0000, -2.698569502839522E+08, 2.588868267340933E+08, 2.455219309068649E+07,
2461463.500000000, A.D. 2027-Feb-27 00:00:00.0000, -2.789037132089370E+08, 2.534415456091369E+08, 2.558317979337592E+07,
2461470.500000000, A.D. 2027-Mar-06 00:00:00.0000, -2.876994119204663E+08, 2.477680385703554E+08, 2.659111487235528E+07,
2461477.500000000, A.D. 2027-Mar-13 00:00:00.0000, -2.962419874178640E+08, 2.418764714999043E+08, 2.757563142677310E+07,
2461484.500000000, A.D. 2027-Mar-20 00:00:00.0000, -3.045296398931690E+08, 2.357767070131190E+08, 2.853639424337716E+07,
2461491.500000000, A.D. 2027-Mar-27 00:00:00.0000, -3.125608052450054E+08, 2.294783158924969E+08, 2.947309718335307E+07,
2461498.500000000, A.D. 2027-Apr-03 00:00:00.0000, -3.203341336811737E+08, 2.229905885028843E+08, 3.038546077883911E+07,
2461505.500000000, A.D. 2027-Apr-10 00:00:00.0000, -3.278484701831434E+08, 2.163225461276389E+08, 3.127323001905517E+07,
2461512.500000000, A.D. 2027-Apr-17 00:00:00.0000, -3.351028366577048E+08, 2.094829521441459E+08, 3.213617230759990E+07,
2461519.500000000, A.D. 2027-Apr-24 00:00:00.0000, -3.420964155559275E+08, 2.024803229227861E+08, 3.297407556440181E+07,
2461526.500000000, A.D. 2027-May-01 00:00:00.0000, -3.488285345302888E+08, 1.953229384348201E+08, 3.378674643399489E+07,
2461533.500000000, A.D. 2027-May-08 00:00:00.0000, -3.552986517035928E+08, 1.880188532845568E+08, 3.457400862094922E+07,
2461540.500000000, A.D. 2027-May-15 00:00:00.0000, -3.615063429386271E+08, 1.805759090941989E+08, 3.533570155651180E+07,
2461547.500000000, A.D. 2027-May-22 00:00:00.0000, -3.674512925754585E+08, 1.730017456334786E+08, 3.607167931803022E+07,
2461554.500000000, A.D. 2027-May-29 00:00:00.0000, -3.731332841883295E+08, 1.653038092164213E+08, 3.678180936412917E+07,
2461561.500000000, A.D. 2027-Jun-05 00:00:00.0000, -3.785521903896939E+08, 1.574893614879231E+08, 3.746597125156693E+07,
2461568.500000000, A.D. 2027-Jun-12 00:00:00.0000, -3.837079636138798E+08, 1.495654890259103E+08, 3.812405554519402E+07,
2461575.500000000, A.D. 2027-Jun-19 00:00:00.0000, -3.886006281448994E+08, 1.415391128249131E+08, 3.875596286798824E+07,
2461582.500000000, A.D. 2027-Jun-26 00:00:00.0000, -3.932302730460399E+08, 1.334169974035388E+08, 3.936160303780485E+07,
2461589.500000000, A.D. 2027-Jul-03 00:00:00.0000, -3.975970458009176E+08, 1.252057595488533E+08, 3.994089427351414E+07,
2461596.500000000, A.D. 2027-Jul-10 00:00:00.0000, -4.017011465765212E+08, 1.169118767123836E+08, 4.049376246250957E+07,
2461603.500000000, A.D. 2027-Jul-17 00:00:00.0000, -4.055428230243881E+08, 1.085416950262613E+08, 4.102014047825412E+07,
2461610.500000000, A.D. 2027-Jul-24 00:00:00.0000, -4.091223654205020E+08, 1.001014368852463E+08, 4.151996752402727E+07,
2461617.500000000, A.D. 2027-Jul-31 00:00:00.0000, -4.124401016934713E+08, 9.159720833954494E+07, 4.199318848043417E+07,
2461624.500000000, A.D. 2027-Aug-07 00:00:00.0000, -4.154963925064034E+08, 8.303500745996921E+07, 4.243975336557817E+07,
2461631.500000000, A.D. 2027-Aug-14 00:00:00.0000, -4.182916286629251E+08, 7.442073343235987E+07, 4.285961709498139E+07,
2461638.500000000, A.D. 2027-Aug-21 00:00:00.0000, -4.208262301930015E+08, 6.576019302952272E+07, 4.325273920684160E+07,
2461645.500000000, A.D. 2027-Aug-28 00:00:00.0000, -4.231006436603343E+08, 5.705910567841034E+07, 4.361908333351054E+07,
2461652.500000000, A.D. 2027-Sep-04 00:00:00.0000, -4.251153388435774E+08, 4.832310963681737E+07, 4.395861672873572E+07,
2461659.500000000, A.D. 2027-Sep-11 00:00:00.0000, -4.268708061623721E+08, 3.955776862746507E+07, 4.427130992137699E+07,
2461666.500000000, A.D. 2027-Sep-18 00:00:00.0000, -4.283675546957413E+08, 3.076857828857689E+07, 4.455713642758795E+07,
2461673.500000000, A.D. 2027-Sep-25 00:00:00.0000, -4.296061105480152E+08, 2.196097237285217E+07, 4.481607249200160E+07,
2461680.500000000, A.D. 2027-Oct-02 00:00:00.0000, -4.305870154747281E+08, 1.314032873252757E+07, 4.504809685166371E+07,
2461687.500000000, A.D. 2027-Oct-09 00:00:00.0000, -4.313108257360110E+08, 4.311975097619740E+06, 4.525319051901091E+07,
2461694.500000000, A.D. 2027-Oct-16 00:00:00.0000, -4.317781111050753E+08, -4.518805394775672E+06, 4.543133657243979E+07,
2461701.500000000, A.D. 2027-Oct-23 00:00:00.0000, -4.319894537626635E+08, -1.334676891298521E+07, 4.558251992896239E+07,
2461708.500000000, A.D. 2027-Oct-30 00:00:00.0000, -4.319454466936470E+08, -2.216670526260880E+07, 4.570672711324050E+07,
2461715.500000000, A.D. 2027-Nov-06 00:00:00.0000, -4.316466927409522E+08, -3.097343069867105E+07, 4.580394622072956E+07,
2461722.500000000, A.D. 2027-Nov-13 00:00:00.0000, -4.310938062967934E+08, -3.976178128461722E+07, 4.587416708646148E+07,
2461729.500000000, A.D. 2027-Nov-20 00:00:00.0000, -4.302874147271025E+08, -4.852660897367798E+07, 4.591738121432299E+07,
2461736.500000000, A.D. 2027-Nov-27 00:00:00.0000, -4.292281579083927E+08, -5.726277743634447E+07, 4.593358156043641E+07,
2461743.500000000, A.D. 2027-Dec-04 00:00:00.0000, -4.279166878963751E+08, -6.596515670973083E+07, 4.592276243033313E+07,
2461750.500000000, A.D. 2027-Dec-11 00:00:00.0000, -4.263536692758793E+08, -7.462861762434870E+07, 4.588491946128111E+07,
2461757.500000000, A.D. 2027-Dec-18 00:00:00.0000, -4.245397799193127E+08, -8.324802633843660E+07, 4.582004963696238E+07,
2461764.500000000, A.D. 2027-Dec-25 00:00:00.0000, -4.224757120048137E+08, -9.181823897211091E+07, 4.572815132071708E+07,
2461771.500000000, A.D. 2028-Jan-01 00:00:00.0000, -4.201621732562019E+08, -1.003340963168523E+08, 4.560922430512793E+07,
$$EOE